start=new Date('2022-06-13T00:00:00.000Z').valueOf();
sats=[{"SITE":"AFWTR","GP_ID":"206016668","COUNTRY_CODE":"US","DECAY_DATE":null,"ELEMENT_SET_NO":"999","EPOCH":"2022-06-12T17:51:30.992544","MEAN_MOTION_DDOT":"0.0000000000000","CENTER_NAME":"EARTH","MEAN_ANOMALY":"325.4858","PERIOD":"95.437","BSTAR":"-0.00002780500000","MEAN_ELEMENT_THEORY":"SGP4","FILE":"3493781","TLE_LINE2":"2 50169  53.2192 261.0990 0002343  34.6287 325.4858 15.08845435 30397","MEAN_MOTION":"15.08845435","APOAPSIS":"541.350","RA_OF_ASC_NODE":"261.0990","RCS_SIZE":"LARGE","OBJECT_NAME":"STARLINK-3301","REV_AT_EPOCH":"3039","TIME_SYSTEM":"UTC","REF_FRAME":"TEME","INCLINATION":"53.2192","OBJECT_TYPE":"PAYLOAD","CLASSIFICATION_TYPE":"U","ARG_OF_PERICENTER":"34.6287","MEAN_MOTION_DOT":"-0.00000731","EPHEMERIS_TYPE":"0","ECCENTRICITY":"0.00023430","NORAD_CAT_ID":"50169","SEMIMAJOR_AXIS":"6917.864","LAUNCH_DATE":"2021-12-18","PERIAPSIS":"538.108","OBJECT_ID":"2021-125P","TLE_LINE1":"1 50169U 21125P   22163.74410871 -.00000731  00000-0 -27805-4 0  9997"},{"NORAD_CAT_ID":"50170","EPHEMERIS_TYPE":"0","ECCENTRICITY":"0.00019640","OBJECT_ID":"2021-125Q","LAUNCH_DATE":"2021-12-18","PERIAPSIS":"538.389","TLE_LINE1":"1 50170U 21125Q   22163.69995470 -.00000668  00000-0 -23895-4 0  9990","SEMIMAJOR_AXIS":"6917.883","TIME_SYSTEM":"UTC","REV_AT_EPOCH":"3037","REF_FRAME":"TEME","INCLINATION":"53.2162","RCS_SIZE":"LARGE","OBJECT_NAME":"STARLINK-3245","OBJECT_TYPE":"PAYLOAD","CLASSIFICATION_TYPE":"U","ARG_OF_PERICENTER":"40.6013","MEAN_MOTION_DOT":"-0.00000668","MEAN_ELEMENT_THEORY":"SGP4","FILE":"3493781","TLE_LINE2":"2 50170  53.2162 261.2804 0001964  40.6013 319.5126 15.08839093 30377","MEAN_MOTION_DDOT":"0.0000000000000","CENTER_NAME":"EARTH","PERIOD":"95.438","MEAN_ANOMALY":"319.5126","BSTAR":"-0.00002389500000","APOAPSIS":"541.107","RA_OF_ASC_NODE":"261.2804","MEAN_MOTION":"15.08839093","GP_ID":"206016914","COUNTRY_CODE":"US","SITE":"AFWTR","EPOCH":"2022-06-12T16:47:56.086080","ELEMENT_SET_NO":"999","DECAY_DATE":null},{"MEAN_MOTION_DOT":"0.00000762","ARG_OF_PERICENTER":"44.1593","CLASSIFICATION_TYPE":"U","OBJECT_TYPE":"PAYLOAD","INCLINATION":"53.2168","REF_FRAME":"TEME","REV_AT_EPOCH":"3036","TIME_SYSTEM":"UTC","OBJECT_NAME":"STARLINK-3286","RCS_SIZE":"LARGE","TLE_LINE1":"1 50171U 21125R   22163.58220687  .00000762  00000-0  65966-4 0  9998","OBJECT_ID":"2021-125R","LAUNCH_DATE":"2021-12-18","PERIAPSIS":"538.542","SEMIMAJOR_AXIS":"6917.866","NORAD_CAT_ID":"50171","ECCENTRICITY":"0.00017190","EPHEMERIS_TYPE":"0","ELEMENT_SET_NO":"999","EPOCH":"2022-06-12T13:58:22.673568","DECAY_DATE":null,"GP_ID":"206015667","COUNTRY_CODE":"US","SITE":"AFWTR","RA_OF_ASC_NODE":"261.8118","APOAPSIS":"540.920","MEAN_MOTION":"15.08844707","TLE_LINE2":"2 50171  53.2168 261.8118 0001719  44.1593 315.9536 15.08844707 30360","FILE":"3493781","MEAN_ELEMENT_THEORY":"SGP4","PERIOD":"95.437","BSTAR":"0.00006596600000","MEAN_ANOMALY":"315.9536","CENTER_NAME":"EARTH","MEAN_MOTION_DDOT":"0.0000000000000"},{"PERIOD":"95.438","BSTAR":"0.00010446000000","MEAN_ANOMALY":"326.5215","CENTER_NAME":"EARTH","MEAN_MOTION_DDOT":"0.0000000000000","TLE_LINE2":"2 50172  53.2179 261.3294 0002371  33.5927 326.5215 15.08839968 30412","FILE":"3493781","MEAN_ELEMENT_THEORY":"SGP4","MEAN_MOTION":"15.08839968","RA_OF_ASC_NODE":"261.3294","APOAPSIS":"541.386","SITE":"AFWTR","COUNTRY_CODE":"US","GP_ID":"206015917","DECAY_DATE":null,"EPOCH":"2022-06-12T16:37:19.848576","ELEMENT_SET_NO":"999","ECCENTRICITY":"0.00023710","EPHEMERIS_TYPE":"0","NORAD_CAT_ID":"50172","SEMIMAJOR_AXIS":"6917.880","TLE_LINE1":"1 50172U 21125S   22163.69259084  .00001375  00000-0  10446-3 0  9997","LAUNCH_DATE":"2021-12-18","PERIAPSIS":"538.105","OBJECT_ID":"2021-125S","OBJECT_NAME":"STARLINK-3287","RCS_SIZE":"LARGE","INCLINATION":"53.2179","REF_FRAME":"TEME","REV_AT_EPOCH":"3041","TIME_SYSTEM":"UTC","MEAN_MOTION_DOT":"0.00001375","ARG_OF_PERICENTER":"33.5927","OBJECT_TYPE":"PAYLOAD","CLASSIFICATION_TYPE":"U"},{"MEAN_MOTION":"15.08850348","RA_OF_ASC_NODE":"251.4465","APOAPSIS":"545.077","CENTER_NAME":"EARTH","MEAN_MOTION_DDOT":"0.0000000000000","MEAN_ANOMALY":"16.2394","PERIOD":"95.437","BSTAR":"-0.00030769000000","FILE":"3493781","MEAN_ELEMENT_THEORY":"SGP4","TLE_LINE2":"2 50173  53.2253 251.4465 0007753 343.8350  16.2394 15.08850348 30520","DECAY_DATE":null,"ELEMENT_SET_NO":"999","EPOCH":"2022-06-12T15:41:45.746880","SITE":"AFWTR","COUNTRY_CODE":"US","GP_ID":"206017169","SEMIMAJOR_AXIS":"6917.849","LAUNCH_DATE":"2021-12-18","PERIAPSIS":"534.350","OBJECT_ID":"2021-125T","TLE_LINE1":"1 50173U 21125T   22163.65400170 -.00005189  00000-0 -30769-3 0  9997","EPHEMERIS_TYPE":"0","ECCENTRICITY":"0.00077530","NORAD_CAT_ID":"50173","CLASSIFICATION_TYPE":"U","OBJECT_TYPE":"PAYLOAD","MEAN_MOTION_DOT":"-0.00005189","ARG_OF_PERICENTER":"343.8350","OBJECT_NAME":"STARLINK-3289","RCS_SIZE":"LARGE","REF_FRAME":"TEME","TIME_SYSTEM":"UTC","REV_AT_EPOCH":"3052","INCLINATION":"53.2253"},{"RA_OF_ASC_NODE":"261.3787","APOAPSIS":"541.165","MEAN_MOTION":"15.08851135","TLE_LINE2":"2 50174  53.2191 261.3787 0002101  40.3370 319.7778 15.08851135 30423","FILE":"3493781","MEAN_ELEMENT_THEORY":"SGP4","PERIOD":"95.437","BSTAR":"0.00013286000000","MEAN_ANOMALY":"319.7778","CENTER_NAME":"EARTH","MEAN_MOTION_DDOT":"0.0000000000000","EPOCH":"2022-06-12T16:21:26.186112","ELEMENT_SET_NO":"999","DECAY_DATE":null,"GP_ID":"206017415","COUNTRY_CODE":"US","SITE":"AFWTR","TLE_LINE1":"1 50174U 21125U   22163.68155308  .00001828  00000-0  13286-3 0  9990","OBJECT_ID":"2021-125U","LAUNCH_DATE":"2021-12-18","PERIAPSIS":"538.258","SEMIMAJOR_AXIS":"6917.846","NORAD_CAT_ID":"50174","ECCENTRICITY":"0.00021010","EPHEMERIS_TYPE":"0","MEAN_MOTION_DOT":"0.00001828","ARG_OF_PERICENTER":"40.3370","OBJECT_TYPE":"PAYLOAD","CLASSIFICATION_TYPE":"U","INCLINATION":"53.2191","REF_FRAME":"TEME","TIME_SYSTEM":"UTC","REV_AT_EPOCH":"3042","OBJECT_NAME":"STARLINK-3292","RCS_SIZE":"LARGE"},{"ECCENTRICITY":"0.00018050","EPHEMERIS_TYPE":"0","NORAD_CAT_ID":"50175","SEMIMAJOR_AXIS":"6917.866","TLE_LINE1":"1 50175U 21125V   22163.50491665  .00001395  00000-0  10570-3 0  9993","PERIAPSIS":"538.482","LAUNCH_DATE":"2021-12-18","OBJECT_ID":"2021-125V","RCS_SIZE":"LARGE","OBJECT_NAME":"STARLINK-3291","INCLINATION":"53.2170","TIME_SYSTEM":"UTC","REV_AT_EPOCH":"3035","REF_FRAME":"TEME","ARG_OF_PERICENTER":"46.9621","MEAN_MOTION_DOT":"0.00001395","OBJECT_TYPE":"PAYLOAD","CLASSIFICATION_TYPE":"U","PERIOD":"95.437","BSTAR":"0.00010570000000","MEAN_ANOMALY":"313.1522","MEAN_MOTION_DDOT":"0.0000000000000","CENTER_NAME":"EARTH","TLE_LINE2":"2 50175  53.2170 262.1600 0001805  46.9621 313.1522 15.08844670 30358","MEAN_ELEMENT_THEORY":"SGP4","FILE":"3493305","MEAN_MOTION":"15.08844670","APOAPSIS":"540.980","RA_OF_ASC_NODE":"262.1600","SITE":"AFWTR","GP_ID":"205980805","COUNTRY_CODE":"US","DECAY_DATE":null,"ELEMENT_SET_NO":"999","EPOCH":"2022-06-12T12:07:04.798560"},{"ECCENTRICITY":"0.00023730","EPHEMERIS_TYPE":"0","NORAD_CAT_ID":"50176","SEMIMAJOR_AXIS":"6917.857","TLE_LINE1":"1 50176U 21125W   22163.68523280  .00001564  00000-0  11635-3 0  9993","OBJECT_ID":"2021-125W","LAUNCH_DATE":"2021-12-18","PERIAPSIS":"538.081","RCS_SIZE":"LARGE","OBJECT_NAME":"STARLINK-3293","INCLINATION":"53.2189","TIME_SYSTEM":"UTC","REV_AT_EPOCH":"3042","REF_FRAME":"TEME","ARG_OF_PERICENTER":"36.1565","MEAN_MOTION_DOT":"0.00001564","OBJECT_TYPE":"PAYLOAD","CLASSIFICATION_TYPE":"U","PERIOD":"95.437","BSTAR":"0.00011635000000","MEAN_ANOMALY":"323.9587","MEAN_MOTION_DDOT":"0.0000000000000","CENTER_NAME":"EARTH","TLE_LINE2":"2 50176  53.2189 261.3623 0002373  36.1565 323.9587 15.08847505 30422","MEAN_ELEMENT_THEORY":"SGP4","FILE":"3493781","MEAN_MOTION":"15.08847505","APOAPSIS":"541.364","RA_OF_ASC_NODE":"261.3623","SITE":"AFWTR","GP_ID":"206016418","COUNTRY_CODE":"US","DECAY_DATE":null,"ELEMENT_SET_NO":"999","EPOCH":"2022-06-12T16:26:44.113920"},{"MEAN_ELEMENT_THEORY":"SGP4","FILE":"3493781","TLE_LINE2":"2 50177  53.2179 261.3110 0002246  34.2573 325.8563 15.08833879 30389","MEAN_MOTION_DDOT":"0.0000000000000","CENTER_NAME":"EARTH","PERIOD":"95.438","MEAN_ANOMALY":"325.8563","BSTAR":"0.00009966100000","APOAPSIS":"541.318","RA_OF_ASC_NODE":"261.3110","MEAN_MOTION":"15.08833879","COUNTRY_CODE":"US","GP_ID":"206016669","SITE":"AFWTR","EPOCH":"2022-06-12T16:42:38.200608","ELEMENT_SET_NO":"999","DECAY_DATE":null,"NORAD_CAT_ID":"50177","EPHEMERIS_TYPE":"0","ECCENTRICITY":"0.00022460","LAUNCH_DATE":"2021-12-18","PERIAPSIS":"538.210","OBJECT_ID":"2021-125X","TLE_LINE1":"1 50177U 21125X   22163.69627547  .00001298  00000-0  99661-4 0  9996","SEMIMAJOR_AXIS":"6917.899","REV_AT_EPOCH":"3038","TIME_SYSTEM":"UTC","REF_FRAME":"TEME","INCLINATION":"53.2179","RCS_SIZE":"LARGE","OBJECT_NAME":"STARLINK-3282","CLASSIFICATION_TYPE":"U","OBJECT_TYPE":"PAYLOAD","ARG_OF_PERICENTER":"34.2573","MEAN_MOTION_DOT":"0.00001298"},{"DECAY_DATE":null,"ELEMENT_SET_NO":"999","EPOCH":"2022-06-12T14:08:57.181344","SITE":"AFWTR","GP_ID":"206016915","COUNTRY_CODE":"US","MEAN_MOTION":"15.08848753","APOAPSIS":"541.159","RA_OF_ASC_NODE":"261.7795","PERIOD":"95.437","MEAN_ANOMALY":"322.1542","BSTAR":"0.00010253000000","MEAN_MOTION_DDOT":"0.0000000000000","CENTER_NAME":"EARTH","TLE_LINE2":"2 50178  53.2163 261.7795 0002082  37.9597 322.1542 15.08848753 30407","MEAN_ELEMENT_THEORY":"SGP4","FILE":"3493781","ARG_OF_PERICENTER":"37.9597","MEAN_MOTION_DOT":"0.00001344","CLASSIFICATION_TYPE":"U","OBJECT_TYPE":"PAYLOAD","RCS_SIZE":"LARGE","OBJECT_NAME":"STARLINK-3284","INCLINATION":"53.2163","REV_AT_EPOCH":"3040","TIME_SYSTEM":"UTC","REF_FRAME":"TEME","SEMIMAJOR_AXIS":"6917.854","TLE_LINE1":"1 50178U 21125Y   22163.58955071  .00001344  00000-0  10253-3 0  9992","OBJECT_ID":"2021-125Y","LAUNCH_DATE":"2021-12-18","PERIAPSIS":"538.278","ECCENTRICITY":"0.00020820","EPHEMERIS_TYPE":"0","NORAD_CAT_ID":"50178"}];
